NORAD_CAT_ID,OBJECT_NAME,OBJECT_TYPE,EPOCH,MEAN_MOTION,ECCENTRICITY,INCLINATION,RA_OF_ASC_NODE,ARG_OF_PERICENTER,MEAN_ANOMALY,BSTAR,MEAN_MOTION_DOT,MEAN_MOTION_DDOT,TLE_LINE0,TLE_LINE1,TLE_LINE2,SEMIMAJOR_AXIS,PERIOD,APOGEE,PERIGEE,DECAYED
50169.0,STARLINK-3301,PAYLOAD,2022-10-03 13:13:21,15.08893947,0.0002298,53.2154,114.6872,50.9067,309.2129,-0.00045759,-7.575e-05,0.0,0 STARLINK-3301,1 50169U 21125P   22276.55093945 -.00007575  00000-0 -45759-3 0  9990,2 50169  53.2154 114.6872 0002298  50.9067 309.2129 15.08893947 47427,6917.715,95.434,541.17,537.991,0.0
50169.0,STARLINK-3301,PAYLOAD,2022-10-03 19:34:54,15.08852962,0.000205,53.2155,113.498,52.2186,307.8992,0.00011668,1.57e-05,0.0,0 STARLINK-3301,1 50169U 21125P   22276.81591115  .00001570  00000-0  11668-3 0  9990,2 50169  53.2155 113.4980 0002050  52.2186 307.8992 15.08852962 47466,6917.840999999999,95.437,541.124,538.288,0.0
50169.0,STARLINK-3301,PAYLOAD,2022-10-04 06:42:36,15.08849583,0.0002154,53.2159,111.4173,48.6639,311.4538,9.5212e-05,1.228e-05,0.0,0 STARLINK-3301,1 50169U 21125P   22277.27959192  .00001228  00000-0  95212-4 0  9992,2 50169  53.2159 111.4173 0002154  48.6639 311.4538 15.08849583 47539,6917.851,95.437,541.206,538.226,0.0
50169.0,STARLINK-3301,PAYLOAD,2022-10-04 19:25:42,15.08841954,0.0002084,53.2157,109.0376,51.6861,308.4319,8.693600000000001e-05,1.096e-05,0.0,0 STARLINK-3301,1 50169U 21125P   22277.80951515  .00001096  00000-0  86936-4 0  9998,2 50169  53.2157 109.0376 0002084  51.6861 308.4319 15.08841954 44521,6917.874,95.437,541.181,538.298,0.0
50169.0,STARLINK-3301,PAYLOAD,2022-10-04 22:36:28,15.0883836,0.0001796,53.2171,108.4414,55.3132,304.8029,-3.331e-05,-8.18e-06,0.0,0 STARLINK-3301,1 50169U 21125P   22277.94200020 -.00000818  00000-0 -33310-4 0  9992,2 50169  53.2171 108.4414 0001796  55.3132 304.8029 15.08838360 47634,6917.885,95.438,540.993,538.508,0.0
50169.0,STARLINK-3301,PAYLOAD,2022-10-05 19:16:28,15.08877758,0.0001653,53.2162,104.5762,43.1111,317.001,-0.00059571,-9.766e-05,0.0,0 STARLINK-3301,1 50169U 21125P   22278.80311161 -.00009766  00000-0 -59571-3 0  9994,2 50169  53.2162 104.5762 0001653  43.1111 317.0010 15.08877758 44672,6917.765,95.435,540.773,538.486,0.0
50169.0,STARLINK-3301,PAYLOAD,2022-10-06 19:07:16,15.08833184,0.000179,53.215,100.1148,41.3233,318.7894,3.6246e-05,2.89e-06,0.0,0 STARLINK-3301,1 50169U 21125P   22279.79672206  .00000289  00000-0  36246-4 0  9997,2 50169  53.2150 100.1148 0001790  41.3233 318.7894 15.08833184 47919,6917.901,95.438,541.005,538.528,0.0
50169.0,STARLINK-3301,PAYLOAD,2022-10-07 04:39:35,15.08828718,0.0001833,53.2155,98.3307,38.2849,321.8273,0.00021617,3.153e-05,0.0,0 STARLINK-3301,1 50169U 21125P   22280.19416266  .00003153  00000-0  21617-3 0  9993,2 50169  53.2155  98.3307 0001833  38.2849 321.8273 15.08828718 47974,6917.915,95.438,541.048,538.512,0.0
50169.0,STARLINK-3301,PAYLOAD,2022-10-07 18:58:03,15.08838021,0.0001906,53.2159,95.6542,42.5542,317.5598,0.00010709,1.417e-05,0.0,0 STARLINK-3301,1 50169U 21125P   22280.79032043  .00001417  00000-0  10709-3 0  9997,2 50169  53.2159  95.6542 0001906  42.5542 317.5598 15.08838021 48069,6917.886,95.438,541.07,538.433,0.0
50169.0,STARLINK-3301,PAYLOAD,2022-10-08 04:30:22,15.08835291,0.0001949,53.2156,93.8696,41.8738,318.2403,0.00011154,1.487e-05,0.0,0 STARLINK-3301,1 50169U 21125P   22281.18776268  .00001487  00000-0  11154-3 0  9997,2 50169  53.2156  93.8696 0001949  41.8738 318.2403 15.08835291 48128,6917.895,95.438,541.1080000000002,538.411,0.0
50169.0,STARLINK-3301,PAYLOAD,2022-10-08 18:48:51,15.088347099999998,0.0001940999999999,53.2163,91.1938,43.0071,317.1073,7.1583e-05,8.51e-06,0.0,0 STARLINK-3301,1 50169U 21125P   22281.78392668  .00000851  00000-0  71583-4 0  9998,2 50169  53.2163  91.1938 0001941  43.0071 317.1073 15.08834710 48218,6917.897,95.438,541.104,538.419,0.0
50169.0,STARLINK-3301,PAYLOAD,2022-10-09 04:21:09,15.08843745,0.0001984,53.2164,89.4097,43.6405,316.4744,0.00011837,1.596e-05,0.0,0 STARLINK-3301,1 50169U 21125P   22282.18136024  .00001596  00000-0  11837-3 0  9997,2 50169  53.2164  89.4097 0001984  43.6405 316.4744 15.08843745 48270,6917.869000000002,95.437,541.106,538.361,0.0
50169.0,STARLINK-3301,PAYLOAD,2022-10-09 18:39:37,15.08840248,0.0002131999999999,53.2161,86.7343,50.3746,309.7434,8.6839e-05,1.094e-05,0.0,0 STARLINK-3301,1 50169U 21125P   22282.77752301  .00001094  00000-0  86839-4 0  9992,2 50169  53.2161  86.7343 0002132  50.3746 309.7434 15.08840248 45273,6917.88,95.438,541.22,538.27,0.0
50169.0,STARLINK-3301,PAYLOAD,2022-10-10 04:11:56,15.08846918,0.0002085999999999,53.2157,84.9494,45.762,314.3543,0.00010106,1.321e-05,0.0,0 STARLINK-3301,1 50169U 21125P   22283.17495767  .00001321  00000-0  10106-3 0  9993,2 50169  53.2157  84.9494 0002086  45.7620 314.3543 15.08846918 48425,6917.859,95.437,541.1669999999998,538.281,0.0
50169.0,STARLINK-3301,PAYLOAD,2022-10-10 20:05:48,15.08840734,0.000176,53.2167,81.9735,46.0106,314.1031,-6.0358000000000016e-06,-3.84e-06,0.0,0 STARLINK-3301,1 50169U 21125P   22283.83736298 -.00000384  00000-0 -60358-5 0  9999,2 50169  53.2167  81.9735 0001760  46.0106 314.1031 15.08840734 48523,6917.878000000002,95.438,540.961,538.526,0.0
50169.0,STARLINK-3301,PAYLOAD,2022-10-11 19:56:35,15.08843845,0.0001736,53.2171,77.5133,47.6138,312.5,-1.4082e-05,-5.12e-06,0.0,0 STARLINK-3301,1 50169U 21125P   22284.83096098 -.00000512  00000-0 -14082-4 0  9992,2 50169  53.2171  77.5133 0001736  47.6138 312.5000 15.08843845 48676,6917.869000000002,95.437,540.935,538.533,0.0
50169.0,STARLINK-3301,PAYLOAD,2022-10-12 10:15:02,15.08860017,0.000204,53.2159,74.8385,35.6736,324.4392,-0.00022737,-3.907e-05,0.0,0 STARLINK-3301,1 50169U 21125P   22285.42711580 -.00003907  00000-0 -22737-3 0  9994,2 50169  53.2159  74.8385 0002040  35.6736 324.4392 15.08860017 48767,6917.819,95.436,541.095,538.273,0.0
50169.0,STARLINK-3301,PAYLOAD,2022-10-12 13:25:49,15.08823615,0.0001945,53.2146,74.243,34.2275,325.8842,0.00027222,4.045e-05,0.0,0 STARLINK-3301,1 50169U 21125P   22285.55960577  .00004045  00000-0  27222-3 0  9996,2 50169  53.2146  74.2430 0001945  34.2275 325.8842 15.08823615 45691,6917.93,95.439,541.141,538.45,0.0
50169.0,STARLINK-3301,PAYLOAD,2022-10-12 19:47:22,15.08835933,0.0002164,53.2152,73.0541,31.9002,328.2121,5.7747e-05,6.31e-06,0.0,0 STARLINK-3301,1 50169U 21125P   22285.82456318  .00000631  00000-0  57747-4 0  9992,2 50169  53.2152  73.0541 0002164  31.9002 328.2121 15.08835933 45732,6917.893,95.438,541.255,538.261,0.0
50169.0,STARLINK-3301,PAYLOAD,2022-10-13 10:05:51,15.08832788,0.0002298,53.215,70.3782,32.1955,327.9177,-7.791799999999999e-06,-4.12e-06,0.0,0 STARLINK-3301,1 50169U 21125P   22286.42072953 -.00000412  00000-0 -77918-5 0  9990,2 50169  53.2150  70.3782 0002298  32.1955 327.9177 15.08832788 48910,6917.901999999999,95.438,541.357,538.178,0.0
50169.0,STARLINK-3301,PAYLOAD,2022-10-13 16:27:23,15.08831465,0.0002103,53.2163,69.1889,37.7507,322.3632,-2.2166e-05,-6.41e-06,0.0,0 STARLINK-3301,1 50169U 21125P   22286.68569149 -.00000641  00000-0 -22166-4 0  9994,2 50169  53.2163  69.1889 0002103  37.7507 322.3632 15.08831465 48957,6917.906,95.438,541.226,538.317,0.0
50169.0,STARLINK-3301,PAYLOAD,2022-10-14 11:32:01,15.08837768,0.0002138,53.216,65.62,37.2707,322.8434,4.4729e-05,4.24e-06,0.0,0 STARLINK-3301,1 50169U 21125P   22287.48056747  .00000424  00000-0  44729-4 0  9994,2 50169  53.2160  65.6200 0002138  37.2707 322.8434 15.08837768 49078,6917.887,95.438,541.231,538.273,0.0
50169.0,STARLINK-3301,PAYLOAD,2022-10-14 17:53:33,15.08838939,0.0002154999999999,53.2164,64.4308,37.5727,322.5415,5.1624e-05,5.33e-06,0.0,0 STARLINK-3301,1 50169U 21125P   22287.74552684  .00000533  00000-0  51624-4 0  9997,2 50169  53.2164  64.4308 0002155  37.5727 322.5415 15.08838939 49114,6917.884,95.438,541.239,538.258,0.0
50169.0,STARLINK-3301,PAYLOAD,2022-10-15 12:58:10,15.0886289,0.0002026,53.2164,60.8622,28.6616,331.4487,-0.00012736,-2.316e-05,0.0,0 STARLINK-3301,1 50169U 21125P   22288.54039771 -.00002316  00000-0 -12736-3 0  9996,2 50169  53.2164  60.8622 0002026  28.6616 331.4487 15.08862890 46149,6917.81,95.436,541.077,538.274,0.0
50169.0,STARLINK-3301,PAYLOAD,2022-10-15 19:19:43,15.08834279,0.0002419,53.2177,59.6755,26.7737,333.338,7.5989e-05,9.21e-06,0.0,0 STARLINK-3301,1 50169U 21125P   22288.80536953  .00000921  00000-0  75989-4 0  9997,2 50169  53.2177  59.6755 0002419  26.7737 333.3380 15.08834279 49275,6917.898,95.438,541.436,538.089,0.0
50169.0,STARLINK-3301,PAYLOAD,2022-10-16 12:48:58,15.08839564,0.0002143,53.2168,56.4012,20.1848,339.9228,4.2178e-05,3.83e-06,0.0,0 STARLINK-3301,1 50169U 21125P   22289.53400714  .00000383  00000-0  42178-4 0  9999,2 50169  53.2168  56.4012 0002143  20.1848 339.9228 15.08839564 49388,6917.882,95.438,541.229,538.264,0.0
50169.0,STARLINK-3301,PAYLOAD,2022-10-16 17:35:07,15.08838788,0.0002151999999999,53.2165,55.5092,26.6638,333.4464,2.8402e-05,1.64e-06,0.0,0 STARLINK-3301,1 50169U 21125P   22289.73272742  .00000164  00000-0  28402-4 0  9990,2 50169  53.2165  55.5092 0002152  26.6638 333.4464 15.08838788 49413,6917.884,95.438,541.238,538.26,0.0
50169.0,STARLINK-3301,PAYLOAD,2022-10-17 12:39:45,15.08839053,0.0002522,53.2165,51.9419,28.7826,331.3305,-3.9811e-05,-9.22e-06,0.0,0 STARLINK-3301,1 50169U 21125P   22290.52761280 -.00000922  00000-0 -39811-4 0  9999,2 50169  53.2165  51.9419 0002522  28.7826 331.3305 15.08839053 46446,6917.8830000000025,95.438,541.493,538.004,0.0
50169.0,STARLINK-3301,PAYLOAD,2022-10-17 17:25:54,15.08873038,0.0002165,53.2168,51.0498,46.1424,313.9747,-0.00036356,-6.075e-05,0.0,0 STARLINK-3301,1 50169U 21125P   22290.72632131 -.00006075  00000-0 -36356-3 0  9998,2 50169  53.2168  51.0498 0002165  46.1424 313.9747 15.08873038 46478,6917.779,95.435,541.1419999999998,538.1469999999998,0.0
